APRIZESAT 2             
1 28366U 04025A   22251.15412102  .00000117  00000+0  50045-4 0  9990
2 28366  98.1535 116.0239 0108810  86.4492 274.9133 14.36839229953699
SAUDICOMSAT 1           
1 28369U 04025D   22251.35614527  .00000279  00000+0  78913-4 0  9993
2 28369  98.4486 213.5441 0032194 281.6770  78.0813 14.52842248963880
SAUDICOMSAT 2           
1 28370U 04025E   22251.33996425  .00000216  00000+0  69893-4 0  9991
2 28370  98.5404 212.7449 0058795 110.1625 250.5904 14.47733518960622
APRIZESAT 1             
1 28372U 04025G   22251.35049871  .00000226  00000+0  70026-4 0  9990
2 28372  98.5013 212.9083 0046746  24.7798 335.5627 14.49834284962116
NANOSAT-1               
1 28493U 04049B   22251.52785350  .00000575  00000+0  95098-4 0  9991
2 28493  98.1155 352.3895 0005194  41.6013 318.5589 14.74083569952109
SAUDICOMSAT 7           
1 31119U 07012C   22251.36431527  .00000310  00000+0  69950-4 0  9994
2 31119  98.1893 196.4662 0059375 190.2175 169.7824 14.62150104820824
SAUDICOMSAT 6           
1 31121U 07012E   22251.35854534  .00000378  00000+0  88005-4 0  9999
2 31121  98.2295 191.7416 0074973 295.3365  64.0083 14.58934420819039
SAUDICOMSAT 5           
1 31124U 07012H   22251.33356096  .00000383  00000+0  81197-4 0  9991
2 31124  98.1585 197.9508 0052196 136.0971 224.4397 14.63876713821714
SAUDICOMSAT 3           
1 31125U 07012J   22251.28920598  .00000532  00000+0  10528-3 0  9995
2 31125  98.1243 199.3090 0044365  83.2041 277.4207 14.65707106822640
SAUDICOMSAT 4           
1 31127U 07012L   22251.38458837  .00000319  00000+0  73718-4 0  9994
2 31127  98.2119 194.8803 0066418 239.8450 119.6159 14.60662960819982
APRIZESAT 4             
1 35684U 09041D   22251.47845547  .00000499  00000+0  72816-4 0  9995
2 35684  98.3108 267.9682 0048123  85.6229 275.0478 14.79717168707342
APRIZESAT 3             
1 35686U 09041F   22251.48135788  .00000684  00000+0  77840-4 0  9995
2 35686  98.1052 340.0006 0070622 275.1134  84.2024 14.88031444710957
AISSAT 1                
1 36797U 10035C   22251.07527772  .00001149  00000+0  13403-3 0  9998
2 36797  98.2402  78.0757 0009636 261.2371  98.7753 14.87250778658725
S-NET D                 
1 43186U 18014G   22251.52268585  .00001495  00000+0  13097-3 0  9990
2 43186  97.6486 155.6542 0011239  24.0371 336.1374 14.98137266251355
S-NET B                 
1 43187U 18014H   22251.45613779  .00001470  00000+0  12887-3 0  9991
2 43187  97.6484 155.5363 0011282  24.3977 335.7777 14.98134656251348
S-NET A                 
1 43188U 18014J   22251.45644414  .00001478  00000+0  12952-3 0  9993
2 43188  97.6488 155.6046 0011284  24.4740 335.7016 14.98134183251344
S-NET C                 
1 43189U 18014K   22251.52408821  .00001511  00000+0  13234-3 0  9994
2 43189  97.6482 155.5902 0011235  24.2020 335.9728 14.98131115249907
SALSAT                  
1 46495U 20068K   22251.35721649  .00002003  00000+0  14601-3 0  9992
2 46495  97.7335 192.7156 0016477   4.1068 356.0290 15.04800002106652
